{
    "links": {
        "self": "http://www.neowsapp.com/rest/v1/neo/3765710?api_key=iIulBulltgU6a56xZRHN4H3l9WmuAYTsLGpBGhQ2"
    },
    "id": "3765710",
    "neo_reference_id": "3765710",
    "name": "(2016 XM18)",
    "designation": "2016 XM18",
    "nasa_jpl_url": "http://ssd.jpl.nasa.gov/sbdb.cgi?sstr=3765710",
    "absolute_magnitude_h": 24.2,
    "estimated_diameter": {
        "kilometers": {
            "estimated_diameter_min": 0.0384197891,
            "estimated_diameter_max": 0.0859092601
        },
        "meters": {
            "estimated_diameter_min": 38.4197891064,
            "estimated_diameter_max": 85.9092601232
        },
        "miles": {
            "estimated_diameter_min": 0.0238729428,
            "estimated_diameter_max": 0.0533815229
        },
        "feet": {
            "estimated_diameter_min": 126.0491808919,
            "estimated_diameter_max": 281.8545369825
        }
    },
    "is_potentially_hazardous_asteroid": false,
    "close_approach_data": [
        {
            "close_approach_date": "2016-12-21",
            "close_approach_date_full": "2016-Dec-21 23:42",
            "epoch_date_close_approach": 1482363720000,
            "relative_velocity": {
                "kilometers_per_second": "13.5181367337",
                "kilometers_per_hour": "48665.2922414204",
                "miles_per_hour": "30238.7200596759"
            },
            "miss_distance": {
                "astronomical": "0.053462677",
                "lunar": "20.796981353",
                "kilometers": "7997902.60369799",
                "miles": "4969666.231452662"
            },
            "orbiting_body": "Earth"
        }
    ],
    "orbital_data": {
        "orbit_id": "4",
        "orbit_determination_date": "2017-04-06 08:21:32",
        "first_observation_date": "2016-12-07",
        "last_observation_date": "2016-12-20",
        "data_arc_in_days": 13,
        "observations_used": 28,
        "orbit_uncertainty": "9",
        "minimum_orbit_intersection": ".0271852",
        "jupiter_tisserand_invariant": "3.369",
        "epoch_osculation": "2457732.5",
        "eccentricity": ".6316313355597872",
        "semi_major_axis": "2.197645980849207",
        "inclination": "6.48200988251565",
        "ascending_node_longitude": "71.93745809205377",
        "orbital_period": "1189.967298204636",
        "perihelion_distance": ".8095439148778238",
        "perihelion_argument": "71.80458285591911",
        "aphelion_distance": "3.58574804682059",
        "perihelion_time": "2457781.276418079425",
        "mean_anomaly": "345.2437033058926",
        "mean_motion": ".3025293220604887",
        "equinox": "J2000",
        "orbit_class": {
            "orbit_class_type": "APO",
            "orbit_class_description": "Near-Earth asteroid orbits which cross the Earth’s orbit similar to that of 1862 Apollo",
            "orbit_class_range": "a (semi-major axis) > 1.0 AU; q (perihelion) < 1.017 AU"
        }
    },
    "is_sentry_object": false
}